2022-023F               
1 51951U 22023F   26186.59058436  .00007953  00000+0  32042-3 0  9990
2 51951  63.4439 210.9184 0132244 341.7257  17.9125 15.17862354240500
MERIDIAN 10             
1 52145U 22030A   26185.91483470  .00000201  00000+0  00000+0 0  9993
2 52145  62.6801 138.8730 6788640 272.8477  17.6324  2.00611159 31381
OMNI-L1                 
1 52157U 22033A   26186.19659618  .00003108  00000+0  39041-3 0  9999
2 52157  97.8387 265.0245 0004494 211.0790 149.0158 14.82821617230125
ENMAP                   
1 52159U 22033C   26186.61772279  .00001105  00000+0  17203-3 0  9998
2 52159  97.9790 268.6063 0001426  76.6004 283.5364 14.74938158229376
ARCSAT-1                
1 52161U 22033E   26186.22188162  .00020534  00000+0  31767-3 0  9998
2 52161  97.2751 278.7683 0006224 124.4595 235.7248 15.54077935238508
GLOBAL-18               
1 52196U 22034B   26186.34880341  .00027856  00000+0  55069-3 0  9993
2 52196  52.9805 169.7980 0004088 355.9532   4.1439 15.46924603239775
GAOFEN-3 03             
1 52200U 22035A   26186.61484123  .00000029  00000+0  21924-4 0  9995
2 52200  98.4061 194.9277 0001645  94.3508 265.7870 14.42217365223505
DAQI-1                  
1 52257U 22039A   26186.61026446  .00000310  00000+0  77919-4 0  9999
2 52257  98.1487 125.0817 0003218 175.5389 184.5839 14.57688560224620
BRO-6                   
1 52422U 22047AE  26186.58755253  .00047758  00000+0  79270-3 0  9991
2 52422  97.3391 278.0124 0003439   2.5159 357.6110 15.51966174234001
JILIN-1 GAOFEN 3D27     
1 52444U 22048B   26186.35982404  .00186544  00000+0  97329-3 0  9993
2 52444  97.5721 302.0080 0003819 269.5107  90.5723 15.80366668232345
JILIN-1 GAOFEN 3D28     
1 52445U 22048C   26186.38191417  .00233951  00000+0  99987-3 0  9990
2 52445  97.5669 302.2691 0003623 257.9351 102.1512 15.84551291232407
VIGORIDE-3              
1 52760U 22057AE  26186.29851738  .00008123  00000+0  30462-3 0  9993
2 52760  97.6632 326.7568 0009522  65.5884 294.6347 15.27478617227921
ION SCV-006             
1 52761U 22057AF  26186.35869577  .00018627  00000+0  38443-3 0  9998
2 52761  97.6125 335.8593 0017657  52.1279 308.1564 15.45751326228920
SHERPA-AC1              
1 52763U 22057AH  26186.36837402  .00011456  00000+0  32330-3 0  9995
2 52763  97.6711 336.3573 0008102  37.3853 322.7953 15.36531984228497
OMNI-L2                 
1 52771U 22057AR  26186.35985639  .00002013  00000+0  26331-3 0  9992
2 52771  97.4706 247.4966 0005113 261.6509  98.4125 14.81422724223083
STEP CUBE LAB-II        
1 52897U 22065D   26186.66649115  .00001180  00000+0  23772-3 0  9990
2 52897  98.2257 330.5135 0008002 335.6236  24.4587 14.63333899214202
RANDEV                  
1 52898U 22065E   26186.66267718  .00000916  00000+0  18520-3 0  9997
2 52898  98.2241 330.8693 0007355 336.8461  23.2408 14.63721010213957
SNUGLITE-II             
1 52899U 22065F   26186.34339896  .00001299  00000+0  25483-3 0  9991
2 52899  98.2225 331.1440 0006773 335.9985  24.0901 14.64383251213654
MIMAN                   
1 52900U 22065G   26186.32362121  .00000770  00000+0  16349-3 0  9993
2 52900  98.2285 328.7168 0006978 338.7578  21.3333 14.61865008213097
STARLINK-4362           
1 53043U 22077A   26186.47521447 -.00000729  00000+0 -46599-4 0  9996
2 53043  97.2844   4.4653 0001576  90.6140 269.5269 15.05651832218637
LARES-2                 
1 53105U 22080A   26177.40365794 -.00000028  00000+0  00000+0 0  9996
2 53105  70.1592 302.1681 0005264 334.1364  25.8897  6.38965133 92253
GREENCUBE (IO-117)      
1 53109U 22080E   26186.23812327 -.00000003  00000+0  00000+0 0  9993
2 53109  70.1429 291.9681 0008934 285.8124  74.1550  6.42583233 93227
STARLINK-4410           
1 53204U 22084R   26186.58336806  .00218230  00000+0  52103-2 0  9990
2 53204  97.6002 248.2493 0001250 101.3563 225.1861 15.40661557  5807
TECMS                   
1 53346U 22090A   26186.63985228  .00004408  00000+0  19865-3 0  9997
2 53346  97.3125 254.2281 0004995 124.5757 235.5951 15.21541685217617
DONGPO 02               
1 53452U 22098J   26186.64785242  .00150983  00000+0  84242-3 0  9999
2 53452  97.5539 319.4969 0004047 234.9630 125.1257 15.78972511217708
DONGPO 01               
1 53453U 22098K   26186.60305279  .00142808  00000+0  89900-3 0  9997
2 53453  97.5615 319.9211 0002698 220.8708 139.2355 15.76271372217653
STARLINK-4400           
1 53468U 22099D   26186.32153420  .00003510  00000+0  24695-3 0  9998
2 53468  97.2831 304.4012 0001703 132.2581 227.8791 15.05664935213674
STARLINK-4621           
1 53676U 22105AE  26186.25784553 -.00001074  00000+0 -70562-4 0  9996
2 53676  97.2851  64.3562 0001902  88.5637 271.5809 15.05648757210920
