OBJECT_NAME,OBJECT_ID,EPOCH,MEAN_MOTION,ECCENTRICITY,INCLINATION,RA_OF_ASC_NODE,ARG_OF_PERICENTER,MEAN_ANOMALY,EPHEMERIS_TYPE,CLASSIFICATION_TYPE,NORAD_CAT_ID,ELEMENT_SET_NO,REV_AT_EPOCH,BSTAR,MEAN_MOTION_DOT,MEAN_MOTION_DDOT
2022-023F,2022-023F,2026-07-05T14:10:26.488704,15.17862354,.01322445,63.4439,210.9184,341.7257,17.9125,0,U,51951,999,24050,.32041531E-3,.7953E-4,0
MERIDIAN 10,2022-030A,2026-07-04T21:57:21.718080,2.00611159,.67886408,62.6801,138.8730,272.8477,17.6324,0,U,52145,999,3138,0,.201E-5,0
OMNI-L1,2022-033A,2026-07-05T04:43:05.909952,14.82821617,.00044943,97.8387,265.0245,211.0790,149.0158,0,U,52157,999,23012,.39040892E-3,.3108E-4,0
ENMAP,2022-033C,2026-07-05T14:49:31.249056,14.74938158,.00014267,97.9790,268.6063,76.6004,283.5364,0,U,52159,999,22937,.17203336E-3,.1105E-4,0
ARCSAT-1,2022-033E,2026-07-05T05:19:30.571968,15.54077935,.0006224,97.2751,278.7683,124.4595,235.7248,0,U,52161,999,23850,.31767317E-3,.20534E-3,0
GLOBAL-18,2022-034B,2026-07-05T08:22:16.614624,15.46924603,.00040881,52.9805,169.7980,355.9532,4.1439,0,U,52196,999,23977,.55068556E-3,.27856E-3,0
GAOFEN-3 03,2022-035A,2026-07-05T14:45:22.282272,14.42217365,.00016455,98.4061,194.9277,94.3508,265.7870,0,U,52200,999,22350,.21924245E-4,.29E-6,0
DAQI-1,2022-039A,2026-07-05T14:38:46.849344,14.57688560,.00032187,98.1487,125.0817,175.5389,184.5839,0,U,52257,999,22462,.77919381E-4,.31E-5,0
BRO-6,2022-047AE,2026-07-05T14:06:04.538592,15.51966174,.00034393,97.3391,278.0124,2.5159,357.6110,0,U,52422,999,23400,.79270304E-3,.47758E-3,0
JILIN-1 GAOFEN 3D27,2022-048B,2026-07-05T08:38:08.797056,15.80366668,.000382,97.5721,302.0080,269.5107,90.5723,0,U,52444,999,23234,.97329E-3,.186544E-2,0
JILIN-1 GAOFEN 3D28,2022-048C,2026-07-05T09:09:57.384288,15.84551291,.0003624,97.5669,302.2691,257.9351,102.1512,0,U,52445,999,23240,.99987E-3,.233951E-2,0
VIGORIDE-3,2022-057AE,2026-07-05T07:09:51.901632,15.27478617,.00095222,97.6632,326.7568,65.5884,294.6347,0,U,52760,999,22792,.30461655E-3,.8123E-4,0
ION SCV-006,2022-057AF,2026-07-05T08:36:31.314528,15.45751326,.00176572,97.6125,335.8593,52.1279,308.1564,0,U,52761,999,22892,.38442743E-3,.18627E-3,0
SHERPA-AC1,2022-057AH,2026-07-05T08:50:27.515328,15.36531984,.00081026,97.6711,336.3573,37.3853,322.7953,0,U,52763,999,22849,.32329766E-3,.11456E-3,0
OMNI-L2,2022-057AR,2026-07-05T08:38:11.592096,14.81422724,.00051132,97.4706,247.4966,261.6509,98.4125,0,U,52771,999,22308,.26330864E-3,.2013E-4,0
STEP CUBE LAB-II,2022-065D,2026-07-05T15:59:44.835360,14.63333899,.00080027,98.2257,330.5135,335.6236,24.4587,0,U,52897,999,21420,.23771544E-3,.118E-4,0
RANDEV,2022-065E,2026-07-05T15:54:15.308352,14.63721010,.00073551,98.2241,330.8693,336.8461,23.2408,0,U,52898,999,21395,.18519706E-3,.916E-5,0
SNUGLITE-II,2022-065F,2026-07-05T08:14:29.670144,14.64383251,.0006774,98.2225,331.1440,335.9985,24.0901,0,U,52899,999,21365,.25483E-3,.1299E-4,0
MIMAN,2022-065G,2026-07-05T07:46:00.871680,14.61865007,.0006978,98.2285,328.7168,338.7578,21.3333,0,U,52900,999,21309,.16349E-3,.77E-5,0
STARLINK-4362,2022-077A,2026-07-05T11:24:18.530208,15.05651832,.00015767,97.2844,4.4653,90.6140,269.5269,0,U,53043,999,21863,-.46599363E-4,-.729E-5,0
LARES-2,2022-080A,2026-06-26T09:41:16.046016,6.38965133,.0005264,70.1592,302.1681,334.1364,25.8897,0,U,53105,999,9225,0,-.28E-6,0
GREENCUBE (IO-117),2022-080E,2026-07-05T05:42:53.850528,6.42583233,.00089348,70.1429,291.9681,285.8124,74.1550,0,U,53109,999,9322,0,-.3E-7,0
STARLINK-4410,2022-084R,2026-07-05T14:00:03.000384,15.40661557,.00012507,97.6002,248.2493,101.3563,225.1861,0,U,53204,999,580,.52102808E-2,.21823E-2,0
TECMS,2022-090A,2026-07-05T15:21:23.236992,15.21541685,.00049956,97.3125,254.2281,124.5757,235.5951,0,U,53346,999,21761,.19864773E-3,.4408E-4,0
DONGPO 02,2022-098J,2026-07-05T15:32:54.449088,15.78972511,.00040478,97.5539,319.4969,234.9630,125.1257,0,U,53452,999,21770,.84241995E-3,.150983E-2,0
DONGPO 01,2022-098K,2026-07-05T14:28:23.761056,15.76271372,.00026987,97.5615,319.9211,220.8708,139.2355,0,U,53453,999,21765,.89900135E-3,.142808E-2,0
STARLINK-4400,2022-099D,2026-07-05T07:43:00.554880,15.05664935,.00017039,97.2831,304.4012,132.2581,227.8791,0,U,53468,999,21367,.24694565E-3,.351E-4,0
STARLINK-4621,2022-105AE,2026-07-05T06:11:17.853792,15.05648757,.00019028,97.2851,64.3562,88.5637,271.5809,0,U,53676,999,21092,-.70561513E-4,-.1074E-4,0
